NORAD_CAT_ID,OBJECT_NAME,OBJECT_TYPE,EPOCH,MEAN_MOTION,ECCENTRICITY,INCLINATION,RA_OF_ASC_NODE,ARG_OF_PERICENTER,MEAN_ANOMALY,BSTAR,MEAN_MOTION_DOT,MEAN_MOTION_DDOT,TLE_LINE0,TLE_LINE1,TLE_LINE2,SEMIMAJOR_AXIS,PERIOD,APOGEE,PERIGEE,DECAYED
52367.0,STARLINK-3817,PAYLOAD,2023-03-28 23:35:51,15.08866453,0.0001272,53.2165,342.6446,110.9754,249.1374,0.00077719,0.00012112,0.0,0 STARLINK-3817,1 52367U 22045AN  23087.98323464  .00012112  00000-0  77719-3 0  9996,2 52367  53.2165 342.6446 0001272 110.9754 249.1374 15.08866453 53379,6917.8,95.436,540.544,538.785,0.0
52367.0,STARLINK-3817,PAYLOAD,2023-03-29 02:46:37,15.08870144,0.0001274,53.2164,342.0484,114.3871,245.7254,0.00095818,0.00015007,0.0,0 STARLINK-3817,1 52367U 22045AN  23088.11571233  .00015007  00000-0  95818-3 0  9997,2 52367  53.2164 342.0484 0001274 114.3871 245.7254 15.08870144 53397,6917.788,95.436,540.535,538.772,0.0
52367.0,STARLINK-3817,PAYLOAD,2023-03-29 20:15:52,15.08838151,0.0001463,53.2166,338.7771,112.8667,247.248,0.00096341,0.00015077,0.0,0 STARLINK-3817,1 52367U 22045AN  23088.84436159  .00015077  00000-0  96341-3 0  9993,2 52367  53.2166 338.7771 0001463 112.8667 247.2480 15.08838151 53509,6917.886,95.438,540.763,538.739,0.0
52367.0,STARLINK-3817,PAYLOAD,2023-03-30 02:37:25,15.08840339,0.0001179,53.217,337.5889,82.6507,277.4619,0.0012649,0.000199,0.0,0 STARLINK-3817,1 52367U 22045AN  23089.10932568  .00019900  00000-0  12649-2 0  9995,2 52367  53.2170 337.5889 0001179  82.6507 277.4619 15.08840339 53546,6917.879,95.438,540.56,538.929,0.0
52367.0,STARLINK-3817,PAYLOAD,2023-03-31 02:28:12,15.08858719,0.0001144,53.2166,333.1266,70.3803,289.7312,0.0015049,0.00023756,0.0,0 STARLINK-3817,1 52367U 22045AN  23090.10292432  .00023756  00000-0  15049-2 0  9997,2 52367  53.2166 333.1266 0001144  70.3803 289.7312 15.08858719 53690,6917.823,95.436,540.48,538.897,0.0
52367.0,STARLINK-3817,PAYLOAD,2023-03-31 19:57:26,15.08849509,0.0002308,53.2164,329.8557,138.8207,221.296,7.828e-05,9.58e-06,0.0,0 STARLINK-3817,1 52367U 22045AN  23090.83155855  .00000958  00000-0  78280-4 0  9991,2 52367  53.2164 329.8557 0002308 138.8207 221.2960 15.08849509 53804,6917.851,95.437,541.313,538.12,0.0
52367.0,STARLINK-3817,PAYLOAD,2023-04-01 02:18:59,15.08865116,0.0001121,53.2168,328.669,113.6818,246.4292,0.0011096,0.00017427,0.0,0 STARLINK-3817,1 52367U 22045AN  23091.09651717  .00017427  00000-0  11096-2 0  9997,2 52367  53.2168 328.6690 0001121 113.6818 246.4292 15.08865116 53847,6917.804,95.436,540.444,538.893,0.0
52367.0,STARLINK-3817,PAYLOAD,2023-04-01 19:48:14,15.08825399,0.0001228,53.2164,325.3985,115.5496,244.5623,0.00051021,7.838e-05,0.0,0 STARLINK-3817,1 52367U 22045AN  23091.82516880  .00007838  00000-0  51021-3 0  9997,2 52367  53.2164 325.3985 0001228 115.5496 244.5623 15.08825399 53953,6917.925,95.438,540.64,538.94,0.0
52367.0,STARLINK-3817,PAYLOAD,2023-04-01 21:23:37,15.08821129,8.33e-05,53.2162,325.1012,113.6329,246.4751,0.0004119,6.27e-05,0.0,0 STARLINK-3817,1 52367U 22045AN  23091.89141004  .00006270  00000-0  41190-3 0  9991,2 52367  53.2162 325.1012 0000833 113.6329 246.4751 15.08821129 53966,6917.938,95.439,540.379,539.227,0.0
52367.0,STARLINK-3817,PAYLOAD,2023-04-02 19:39:01,15.0884872,0.0001104,53.2157,320.939,125.9232,234.1863,0.00078787,0.00012276,0.0,0 STARLINK-3817,1 52367U 22045AN  23092.81877029  .00012276  00000-0  78787-3 0  9992,2 52367  53.2157 320.9390 0001104 125.9232 234.1863 15.08848720 54104,6917.854,95.437,540.482,538.955,0.0
52367.0,STARLINK-3817,PAYLOAD,2023-04-02 21:14:24,15.08855187,6.7e-05,53.2153,320.6408,109.5147,250.5918,0.0010138,0.0001589,0.0,0 STARLINK-3817,1 52367U 22045AN  23092.88500956  .00015890  00000-0  10138-2 0  9991,2 52367  53.2153 320.6408 0000670 109.5147 250.5918 15.08855187 54116,6917.834,95.437,540.162,539.235,0.0
52367.0,STARLINK-3817,PAYLOAD,2023-04-03 00:25:10,15.08862717,0.0001051,53.2159,320.0473,126.8134,233.2955,0.0011045,0.00017345,0.0,0 STARLINK-3817,1 52367U 22045AN  23093.01748676  .00017345  00000-0  11045-2 0  9995,2 52367  53.2159 320.0473 0001051 126.8134 233.2955 15.08862717 54138,6917.811,95.436,540.403,538.949,0.0
52367.0,STARLINK-3817,PAYLOAD,2023-04-03 14:43:39,15.0885586,0.0001077,53.2148,317.3732,93.3558,266.7558,0.00059824,9.25e-05,0.0,0 STARLINK-3817,1 52367U 22045AN  23093.61364710  .00009250  00000-0  59824-3 0  9998,2 52367  53.2148 317.3732 0001077  93.3558 266.7558 15.08855860 54220,6917.832,95.437,540.442,538.952,0.0
52367.0,STARLINK-3817,PAYLOAD,2023-04-03 21:05:11,15.08863121,5.65e-05,53.2155,316.1801,74.189,285.9164,0.00088208,0.00013787,0.0,0 STARLINK-3817,1 52367U 22045AN  23093.87860478  .00013787  00000-0  88208-3 0  9996,2 52367  53.2155 316.1801 0000565  74.1890 285.9164 15.08863121 54268,6917.81,95.436,540.066,539.284,0.0
52367.0,STARLINK-3817,PAYLOAD,2023-04-04 00:15:57,15.08860204,8.29e-05,53.2151,315.5853,95.2694,264.8393,0.0012567,0.0001978,0.0,0 STARLINK-3817,1 52367U 22045AN  23094.01108448  .00019780  00000-0  12567-2 0  9998,2 52367  53.2151 315.5853 0000829  95.2694 264.8393 15.08860204 54284,6917.819,95.436,540.257,539.11,0.0
52367.0,STARLINK-3817,PAYLOAD,2023-04-04 20:55:58,15.08840161,8.04e-05,53.2155,311.7191,105.5581,254.55,0.0010275,0.00016103,0.0,0 STARLINK-3817,1 52367U 22045AN  23094.87221060  .00016103  00000-0  10275-2 0  9998,2 52367  53.2155 311.7191 0000804 105.5581 254.5500 15.08840161 54415,6917.88,95.438,540.301,539.189,0.0
52367.0,STARLINK-3817,PAYLOAD,2023-04-05 01:42:08,15.08846634,7.97e-05,53.2156,310.8264,101.1988,258.9094,0.00068728,0.00010669,0.0,0 STARLINK-3817,1 52367U 22045AN  23095.07092969  .00010669  00000-0  68728-3 0  9993,2 52367  53.2156 310.8264 0000797 101.1988 258.9094 15.08846634 54441,6917.86,95.437,540.276,539.174,0.0
52367.0,STARLINK-3817,PAYLOAD,2023-04-05 20:46:46,15.08844584,0.000106,53.2153,307.2601,73.9546,286.1563,0.00040876,6.224e-05,0.0,0 STARLINK-3817,1 52367U 22045AN  23095.86581285  .00006224  00000-0  40876-3 0  9990,2 52367  53.2153 307.2601 0001060  73.9546 286.1563 15.08844584 54562,6917.866,95.437,540.465,538.998,0.0
52367.0,STARLINK-3817,PAYLOAD,2023-04-06 14:16:00,15.08839912,0.0001035,53.2149,303.9874,71.3989,288.7116,0.00016247,2.299e-05,0.0,0 STARLINK-3817,1 52367U 22045AN  23096.59445326  .00002299  00000-0  16247-3 0  9999,2 52367  53.2149 303.9874 0001035  71.3989 288.7116 15.08839912 54670,6917.881,95.438,540.462,539.03,0.0
52367.0,STARLINK-3817,PAYLOAD,2023-04-06 15:51:23,15.08837612,8.27e-05,53.2147,303.6894,98.827,261.2816,6.2926e-05,7.14e-06,0.0,0 STARLINK-3817,1 52367U 22045AN  23096.66069324  .00000714  00000-0  62926-4 0  9993,2 52367  53.2147 303.6894 0000827  98.8270 261.2816 15.08837612 54681,6917.888,95.438,540.325,539.181,0.0
52367.0,STARLINK-3817,PAYLOAD,2023-04-07 06:09:51,15.08841176,3.01e-05,53.2153,301.015,175.7793,184.3201,-1.7005e-06,-3.14e-06,0.0,0 STARLINK-3817,1 52367U 22045AN  23097.25684840 -.00000314  00000-0 -17005-5 0  9992,2 52367  53.2153 301.0150 0000301 175.7793 184.3201 15.08841176 54770,6917.877,95.437,539.95,539.534,0.0
52367.0,STARLINK-3817,PAYLOAD,2023-04-07 20:28:19,15.08847427,0.000102,53.2151,298.3387,98.8689,261.2419,0.00021191,3.087e-05,0.0,0 STARLINK-3817,1 52367U 22045AN  23097.85300908  .00003087  00000-0  21191-3 0  9995,2 52367  53.2151 298.3387 0001020  98.8689 261.2419 15.08847427 54867,6917.858,95.437,540.428,539.017,0.0
52367.0,STARLINK-3817,PAYLOAD,2023-04-08 12:22:11,15.08840279,0.0001151,53.213,295.3624,82.1751,277.9372,0.00039752,6.044e-05,0.0,0 STARLINK-3817,1 52367U 22045AN  23098.51541436  .00006044  00000-0  39752-3 0  9990,2 52367  53.2130 295.3624 0001151  82.1751 277.9372 15.08840279 54967,6917.88,95.438,540.541,538.948,0.0
52367.0,STARLINK-3817,PAYLOAD,2023-04-09 12:12:59,15.08843162,0.0001028,53.215,290.9032,88.9933,271.1177,0.00064835,0.00010047,0.0,0 STARLINK-3817,1 52367U 22045AN  23099.50901748  .00010047  00000-0  64835-3 0  9994,2 52367  53.2150 290.9032 0001028  88.9933 271.1177 15.08843162 55113,6917.871,95.437,540.447,539.025,0.0
52367.0,STARLINK-3817,PAYLOAD,2023-04-09 20:09:54,15.08842838,0.0001093,53.2154,289.416,93.2963,266.8154,0.00042054,6.412e-05,0.0,0 STARLINK-3817,1 52367U 22045AN  23099.84021732  .00006412  00000-0  42054-3 0  9997,2 52367  53.2154 289.4160 0001093  93.2963 266.8154 15.08842838 55166,6917.872,95.437,540.493,538.981,0.0
52367.0,STARLINK-3817,PAYLOAD,2023-04-10 05:42:13,15.08842209,9.42e-05,53.2149,287.6312,92.4293,267.6807,0.0003305,4.976e-05,0.0,0 STARLINK-3817,1 52367U 22045AN  23100.23765724  .00004976  00000-0  33050-3 0  9998,2 52367  53.2149 287.6312 0000942  92.4293 267.6807 15.08842209 55221,6917.874,95.437,540.39,539.087,0.0
52367.0,STARLINK-3817,PAYLOAD,2023-04-10 18:25:18,15.08855004,9.66e-05,53.215,285.2524,93.1415,266.9688,0.00079385,0.00012374,0.0,0 STARLINK-3817,1 52367U 22045AN  23100.76757537  .00012374  00000-0  79385-3 0  9991,2 52367  53.2150 285.2524 0000966  93.1415 266.9688 15.08855004 55307,6917.835,95.437,540.368,539.031,0.0
52367.0,STARLINK-3817,PAYLOAD,2023-04-11 11:54:33,15.08841335,0.000143,53.2145,281.9811,86.5792,273.5364,0.00053718,8.272e-05,0.0,0 STARLINK-3817,1 52367U 22045AN  23101.49621587  .00008272  00000-0  53718-3 0  9991,2 52367  53.2145 281.9811 0001430  86.5792 273.5364 15.08841335 55413,6917.876,95.437,540.731,538.752,0.0
52367.0,STARLINK-3817,PAYLOAD,2023-04-11 18:16:05,15.08849855,0.0001663,53.2147,280.7917,86.4085,273.7097,0.00093775,0.00014672,0.0,0 STARLINK-3817,1 52367U 22045AN  23101.76117619  .00014672  00000-0  93775-3 0  9995,2 52367  53.2147 280.7917 0001663  86.4085 273.7097 15.08849855 55455,6917.85,95.437,540.866,538.565,0.0
52367.0,STARLINK-3817,PAYLOAD,2023-04-11 23:02:14,15.08849936,0.0001273,53.2146,279.8993,86.4982,273.6156,0.0005479,8.445e-05,0.0,0 STARLINK-3817,1 52367U 22045AN  23101.95989495  .00008445  00000-0  54790-3 0  9990,2 52367  53.2146 279.8993 0001273  86.4982 273.6156 15.08849936 55488,6917.85,95.437,540.596,538.834,0.0
